ONEWEB-0034             
1 45454U 20020AG  26084.58054368 -.00000387  00000+0 -11287-2 0  9995
2 45454  87.8898  37.6756 0001888  81.0892 279.0449 13.11417238291636
ONEWEB-0060             
1 45455U 20020AH  26084.62802065  .00000553  00000+0  15243-2 0  9995
2 45455  87.8890  37.6758 0002111 110.2983 249.8372 13.11415722291598
ONEWEB-0086             
1 45456U 20020AJ  26084.60682854  .00000125  00000+0  31546-3 0  9996
2 45456  87.8901  37.6691 0002461  93.7393 266.4016 13.11418926291652
ONEWEB-0088             
1 45457U 20020AK  26084.58477800 -.00000464  00000+0 -13458-2 0  9996
2 45457  87.8909  37.6390 0001525  75.3530 284.7767 13.11410587291589
ONEWEB-0102             
1 47258U 20100A   26084.50178421 -.00000363  00000+0 -10456-2 0  9998
2 47258  87.9009   7.2942 0001994  82.9675 277.1681 13.12444586253757
ONEWEB-0109             
1 47259U 20100B   26084.58650260 -.00000247  00000+0 -72223-3 0  9995
2 47259  87.9018   7.2534 0001931  76.6120 283.5223 13.12444778253599
ONEWEB-0110             
1 47260U 20100C   26084.53737151  .00000359  00000+0  96214-3 0  9995
2 47260  87.9016   7.2478 0001984  85.5853 274.5502 13.12442042253756
ONEWEB-0111             
1 47261U 20100D   26084.49162294 -.00000213  00000+0 -62878-3 0  9991
2 47261  87.9017   7.2754 0001763  82.2914 277.8415 13.12443478253586
ONEWEB-0114             
1 47262U 20100E   26084.52212298  .00000089  00000+0  21326-3 0  9998
2 47262  87.9021   7.2650 0001874  70.4495 289.6836 13.12445299253540
ONEWEB-0117             
1 47263U 20100F   26084.51364458 -.00000199  00000+0 -58872-3 0  9994
2 47263  87.9016   7.2605 0001837  79.0766 281.0570 13.12445151253559
ONEWEB-0118             
1 47264U 20100G   26084.54754095  .00000403  00000+0  10835-2 0  9990
2 47264  87.9015   7.2564 0001704  68.2655 291.8655 13.12443174253751
ONEWEB-0119             
1 47265U 20100H   26084.26799540 -.00000407  00000+0 -11674-2 0  9992
2 47265  87.9008   7.3358 0001815  77.8609 282.2723 13.12443404253693
ONEWEB-0120             
1 47266U 20100J   26084.52056572  .00000019  00000+0  18592-4 0  9998
2 47266  87.9007   7.2865 0001862  75.8719 284.2617 13.12445151253759
ONEWEB-0121             
1 47267U 20100K   26084.50856315 -.00000303  00000+0 -87782-3 0  9994
2 47267  87.9018   7.2668 0001852  84.5908 275.5432 13.12444473253663
ONEWEB-0122             
1 47268U 20100L   26084.50263373 -.00000364  00000+0 -10476-2 0  9993
2 47268  87.9021   7.2706 0001989  78.1603 281.9749 13.12443079253576
ONEWEB-0123             
1 47269U 20100M   26084.49839695 -.00000359  00000+0 -10332-2 0  9993
2 47269  87.9009   7.2890 0001710  75.8419 284.2900 13.12443926253710
ONEWEB-0124             
1 47270U 20100N   26084.48823608 -.00000075  00000+0 -24472-3 0  9997
2 47270  87.9005   7.2954 0001703  81.4005 278.7317 13.12443034253591
