[{"OBJECT_NAME":"ONEWEB-0034","OBJECT_ID":"2020-020AG","EPOCH":"2026-03-25T13:55:58.973952","MEAN_MOTION":13.11417238,"ECCENTRICITY":0.00018881,"INCLINATION":87.8898,"RA_OF_ASC_NODE":37.6756,"ARG_OF_PERICENTER":81.0892,"MEAN_ANOMALY":279.0449,"EPHEMERIS_TYPE":0,"CLASSIFICATION_TYPE":"U","NORAD_CAT_ID":45454,"ELEMENT_SET_NO":999,"REV_AT_EPOCH":29163,"BSTAR":-0.0011287304,"MEAN_MOTION_DOT":-3.87e-6,"MEAN_MOTION_DDOT":0},{"OBJECT_NAME":"ONEWEB-0060","OBJECT_ID":"2020-020AH","EPOCH":"2026-03-25T15:04:20.984160","MEAN_MOTION":13.11415722,"ECCENTRICITY":0.0002111,"INCLINATION":87.889,"RA_OF_ASC_NODE":37.6758,"ARG_OF_PERICENTER":110.2983,"MEAN_ANOMALY":249.8372,"EPHEMERIS_TYPE":0,"CLASSIFICATION_TYPE":"U","NORAD_CAT_ID":45455,"ELEMENT_SET_NO":999,"REV_AT_EPOCH":29159,"BSTAR":0.0015242881,"MEAN_MOTION_DOT":5.53e-6,"MEAN_MOTION_DDOT":0},{"OBJECT_NAME":"ONEWEB-0086","OBJECT_ID":"2020-020AJ","EPOCH":"2026-03-25T14:33:49.985856","MEAN_MOTION":13.11418926,"ECCENTRICITY":0.00024618,"INCLINATION":87.8901,"RA_OF_ASC_NODE":37.6691,"ARG_OF_PERICENTER":93.7393,"MEAN_ANOMALY":266.4016,"EPHEMERIS_TYPE":0,"CLASSIFICATION_TYPE":"U","NORAD_CAT_ID":45456,"ELEMENT_SET_NO":999,"REV_AT_EPOCH":29165,"BSTAR":0.00031546027,"MEAN_MOTION_DOT":1.25e-6,"MEAN_MOTION_DDOT":0},{"OBJECT_NAME":"ONEWEB-0088","OBJECT_ID":"2020-020AK","EPOCH":"2026-03-25T14:02:04.819200","MEAN_MOTION":13.11410587,"ECCENTRICITY":0.00015258,"INCLINATION":87.8909,"RA_OF_ASC_NODE":37.639,"ARG_OF_PERICENTER":75.353,"MEAN_ANOMALY":284.7767,"EPHEMERIS_TYPE":0,"CLASSIFICATION_TYPE":"U","NORAD_CAT_ID":45457,"ELEMENT_SET_NO":999,"REV_AT_EPOCH":29158,"BSTAR":-0.0013458341,"MEAN_MOTION_DOT":-4.64e-6,"MEAN_MOTION_DDOT":0},{"OBJECT_NAME":"ONEWEB-0102","OBJECT_ID":"2020-100A","EPOCH":"2026-03-25T12:02:34.155744","MEAN_MOTION":13.12444586,"ECCENTRICITY":0.00019942,"INCLINATION":87.9009,"RA_OF_ASC_NODE":7.2942,"ARG_OF_PERICENTER":82.9675,"MEAN_ANOMALY":277.1681,"EPHEMERIS_TYPE":0,"CLASSIFICATION_TYPE":"U","NORAD_CAT_ID":47258,"ELEMENT_SET_NO":999,"REV_AT_EPOCH":25375,"BSTAR":-0.0010456153,"MEAN_MOTION_DOT":-3.63e-6,"MEAN_MOTION_DDOT":0},{"OBJECT_NAME":"ONEWEB-0109","OBJECT_ID":"2020-100B","EPOCH":"2026-03-25T14:04:33.824640","MEAN_MOTION":13.12444778,"ECCENTRICITY":0.00019311,"INCLINATION":87.9018,"RA_OF_ASC_NODE":7.2534,"ARG_OF_PERICENTER":76.612,"MEAN_ANOMALY":283.5223,"EPHEMERIS_TYPE":0,"CLASSIFICATION_TYPE":"U","NORAD_CAT_ID":47259,"ELEMENT_SET_NO":999,"REV_AT_EPOCH":25359,"BSTAR":-0.00072222923,"MEAN_MOTION_DOT":-2.47e-6,"MEAN_MOTION_DDOT":0},{"OBJECT_NAME":"ONEWEB-0110","OBJECT_ID":"2020-100C","EPOCH":"2026-03-25T12:53:48.898464","MEAN_MOTION":13.12442042,"ECCENTRICITY":0.00019849,"INCLINATION":87.9016,"RA_OF_ASC_NODE":7.2478,"ARG_OF_PERICENTER":85.5853,"MEAN_ANOMALY":274.5502,"EPHEMERIS_TYPE":0,"CLASSIFICATION_TYPE":"U","NORAD_CAT_ID":47260,"ELEMENT_SET_NO":999,"REV_AT_EPOCH":25375,"BSTAR":0.00096213532,"MEAN_MOTION_DOT":3.59e-6,"MEAN_MOTION_DDOT":0},{"OBJECT_NAME":"ONEWEB-0111","OBJECT_ID":"2020-100D","EPOCH":"2026-03-25T11:47:56.222016","MEAN_MOTION":13.12443478,"ECCENTRICITY":0.00017639,"INCLINATION":87.9017,"RA_OF_ASC_NODE":7.2754,"ARG_OF_PERICENTER":82.2914,"MEAN_ANOMALY":277.8415,"EPHEMERIS_TYPE":0,"CLASSIFICATION_TYPE":"U","NORAD_CAT_ID":47261,"ELEMENT_SET_NO":999,"REV_AT_EPOCH":25358,"BSTAR":-0.00062878194,"MEAN_MOTION_DOT":-2.13e-6,"MEAN_MOTION_DDOT":0},{"OBJECT_NAME":"ONEWEB-0114","OBJECT_ID":"2020-100E","EPOCH":"2026-03-25T12:31:51.425472","MEAN_MOTION":13.12445299,"ECCENTRICITY":0.00018749,"INCLINATION":87.9021,"RA_OF_ASC_NODE":7.265,"ARG_OF_PERICENTER":70.4495,"MEAN_ANOMALY":289.6836,"EPHEMERIS_TYPE":0,"CLASSIFICATION_TYPE":"U","NORAD_CAT_ID":47262,"ELEMENT_SET_NO":999,"REV_AT_EPOCH":25354,"BSTAR":0.00021325915,"MEAN_MOTION_DOT":8.9e-7,"MEAN_MOTION_DDOT":0},{"OBJECT_NAME":"ONEWEB-0117","OBJECT_ID":"2020-100F","EPOCH":"2026-03-25T12:19:38.891712","MEAN_MOTION":13.12445151,"ECCENTRICITY":0.00018379,"INCLINATION":87.9016,"RA_OF_ASC_NODE":7.2605,"ARG_OF_PERICENTER":79.0766,"MEAN_ANOMALY":281.057,"EPHEMERIS_TYPE":0,"CLASSIFICATION_TYPE":"U","NORAD_CAT_ID":47263,"ELEMENT_SET_NO":999,"REV_AT_EPOCH":25355,"BSTAR":-0.00058871536,"MEAN_MOTION_DOT":-1.99e-6,"MEAN_MOTION_DDOT":0},{"OBJECT_NAME":"ONEWEB-0118","OBJECT_ID":"2020-100G","EPOCH":"2026-03-25T13:08:27.538080","MEAN_MOTION":13.12443174,"ECCENTRICITY":0.00017043,"INCLINATION":87.9015,"RA_OF_ASC_NODE":7.2564,"ARG_OF_PERICENTER":68.2655,"MEAN_ANOMALY":291.8655,"EPHEMERIS_TYPE":0,"CLASSIFICATION_TYPE":"U","NORAD_CAT_ID":47264,"ELEMENT_SET_NO":999,"REV_AT_EPOCH":25375,"BSTAR":0.0010834887,"MEAN_MOTION_DOT":4.03e-6,"MEAN_MOTION_DDOT":0},{"OBJECT_NAME":"ONEWEB-0119","OBJECT_ID":"2020-100H","EPOCH":"2026-03-25T06:25:54.802560","MEAN_MOTION":13.12443404,"ECCENTRICITY":0.00018153,"INCLINATION":87.9008,"RA_OF_ASC_NODE":7.3358,"ARG_OF_PERICENTER":77.8609,"MEAN_ANOMALY":282.2723,"EPHEMERIS_TYPE":0,"CLASSIFICATION_TYPE":"U","NORAD_CAT_ID":47265,"ELEMENT_SET_NO":999,"REV_AT_EPOCH":25369,"BSTAR":-0.0011674493,"MEAN_MOTION_DOT":-4.07e-6,"MEAN_MOTION_DDOT":0},{"OBJECT_NAME":"ONEWEB-0120","OBJECT_ID":"2020-100J","EPOCH":"2026-03-25T12:29:36.878208","MEAN_MOTION":13.12445151,"ECCENTRICITY":0.00018624,"INCLINATION":87.9007,"RA_OF_ASC_NODE":7.2865,"ARG_OF_PERICENTER":75.8719,"MEAN_ANOMALY":284.2617,"EPHEMERIS_TYPE":0,"CLASSIFICATION_TYPE":"U","NORAD_CAT_ID":47266,"ELEMENT_SET_NO":999,"REV_AT_EPOCH":25375,"BSTAR":1.8592336e-5,"MEAN_MOTION_DOT":1.9e-7,"MEAN_MOTION_DDOT":0},{"OBJECT_NAME":"ONEWEB-0121","OBJECT_ID":"2020-100K","EPOCH":"2026-03-25T12:12:19.856160","MEAN_MOTION":13.12444473,"ECCENTRICITY":0.00018525,"INCLINATION":87.9018,"RA_OF_ASC_NODE":7.2668,"ARG_OF_PERICENTER":84.5908,"MEAN_ANOMALY":275.5432,"EPHEMERIS_TYPE":0,"CLASSIFICATION_TYPE":"U","NORAD_CAT_ID":47267,"ELEMENT_SET_NO":999,"REV_AT_EPOCH":25366,"BSTAR":-0.00087782465,"MEAN_MOTION_DOT":-3.03e-6,"MEAN_MOTION_DDOT":0},{"OBJECT_NAME":"ONEWEB-0122","OBJECT_ID":"2020-100L","EPOCH":"2026-03-25T12:03:47.554272","MEAN_MOTION":13.12443079,"ECCENTRICITY":0.0001989,"INCLINATION":87.9021,"RA_OF_ASC_NODE":7.2706,"ARG_OF_PERICENTER":78.1603,"MEAN_ANOMALY":281.9749,"EPHEMERIS_TYPE":0,"CLASSIFICATION_TYPE":"U","NORAD_CAT_ID":47268,"ELEMENT_SET_NO":999,"REV_AT_EPOCH":25357,"BSTAR":-0.0010476316,"MEAN_MOTION_DOT":-3.64e-6,"MEAN_MOTION_DDOT":0},{"OBJECT_NAME":"ONEWEB-0123","OBJECT_ID":"2020-100M","EPOCH":"2026-03-25T11:57:41.496480","MEAN_MOTION":13.12443926,"ECCENTRICITY":0.00017102,"INCLINATION":87.9009,"RA_OF_ASC_NODE":7.289,"ARG_OF_PERICENTER":75.8419,"MEAN_ANOMALY":284.29,"EPHEMERIS_TYPE":0,"CLASSIFICATION_TYPE":"U","NORAD_CAT_ID":47269,"ELEMENT_SET_NO":999,"REV_AT_EPOCH":25371,"BSTAR":-0.0010331994,"MEAN_MOTION_DOT":-3.59e-6,"MEAN_MOTION_DDOT":0},{"OBJECT_NAME":"ONEWEB-0124","OBJECT_ID":"2020-100N","EPOCH":"2026-03-25T11:43:03.597312","MEAN_MOTION":13.12443034,"ECCENTRICITY":0.00017037,"INCLINATION":87.9005,"RA_OF_ASC_NODE":7.2954,"ARG_OF_PERICENTER":81.4005,"MEAN_ANOMALY":278.7317,"EPHEMERIS_TYPE":0,"CLASSIFICATION_TYPE":"U","NORAD_CAT_ID":47270,"ELEMENT_SET_NO":999,"REV_AT_EPOCH":25359,"BSTAR":-0.00024471778,"MEAN_MOTION_DOT":-7.5e-7,"MEAN_MOTION_DDOT":0}]
